RCM-1                   
1 44322U 19033A   26190.88254696  .00000310  00000+0  35535-4 0  9995
2 44322  97.7600 198.0082 0001519  91.4459  25.0880 14.92589465385464
RCM-3                   
1 44323U 19033B   26190.81644284 -.00000067  00000+0 -10982-5 0  9996
2 44323  97.7601 198.0374 0001528  89.7051 270.4343 14.92586808385477
RCM-2                   
1 44324U 19033C   26190.83865065  .00000143  00000+0  19291-4 0  9995
2 44324  97.7600 198.0095 0001529  91.1962 268.9432 14.92586828385468
