{"fetched_at":"2026-07-10T07:59:17.930Z","source":"https://celestrak.org/NORAD/elements/gp.php?NAME=RCM&FORMAT=JSON","constellation":"rcm","records":[{"OBJECT_NAME":"RCM-1","OBJECT_ID":"2019-033A","EPOCH":"2026-07-09T21:10:52.057344","CLASSIFICATION_TYPE":"U","MEAN_MOTION":14.92589465,"ECCENTRICITY":0.0001519,"INCLINATION":97.76,"RA_OF_ASC_NODE":198.0082,"ARG_OF_PERICENTER":91.4459,"MEAN_ANOMALY":25.088,"EPHEMERIS_TYPE":0,"NORAD_CAT_ID":44322,"ELEMENT_SET_NO":999,"REV_AT_EPOCH":38546,"BSTAR":0.000035535,"MEAN_MOTION_DOT":0.0000031,"MEAN_MOTION_DDOT":0},{"OBJECT_NAME":"RCM-3","OBJECT_ID":"2019-033B","EPOCH":"2026-07-09T19:35:40.661376","CLASSIFICATION_TYPE":"U","MEAN_MOTION":14.92586808,"ECCENTRICITY":0.0001528,"INCLINATION":97.7601,"RA_OF_ASC_NODE":198.0374,"ARG_OF_PERICENTER":89.7051,"MEAN_ANOMALY":270.4343,"EPHEMERIS_TYPE":0,"NORAD_CAT_ID":44323,"ELEMENT_SET_NO":999,"REV_AT_EPOCH":38547,"BSTAR":-0.0000010982,"MEAN_MOTION_DOT":-6.7e-7,"MEAN_MOTION_DDOT":0},{"OBJECT_NAME":"RCM-2","OBJECT_ID":"2019-033C","EPOCH":"2026-07-09T20:07:39.416160","CLASSIFICATION_TYPE":"U","MEAN_MOTION":14.92586828,"ECCENTRICITY":0.0001529,"INCLINATION":97.76,"RA_OF_ASC_NODE":198.0095,"ARG_OF_PERICENTER":91.1962,"MEAN_ANOMALY":268.9432,"EPHEMERIS_TYPE":0,"NORAD_CAT_ID":44324,"ELEMENT_SET_NO":999,"REV_AT_EPOCH":38546,"BSTAR":0.000019291,"MEAN_MOTION_DOT":0.00000143,"MEAN_MOTION_DDOT":0}]}
